#aV2008  8 22  0  0   .00000000      96 DD+AD WGS84 FIT  NGA
## 1493 432000.00000000   900.00000000 54700  .0000000000000
+   31     2  3  4  5  6  7  8  9 10 11 12 13 14 15 16 17 18
+         19 20 21 22 23 24 25 26 27 28 29 30 31 32  0  0  0
+          0  0  0  0  0  0  0  0  0  0  0  0  0  0  0  0  0
+          0  0  0  0  0  0  0  0  0  0  0  0  0  0  0  0  0
+          0  0  0  0  0  0  0  0  0  0  0  0  0  0  0  0  0
++         0  0  0  0  0  0  0  0  0  0  0  0  0  0  0  0  0
++         0  0  0  0  0  0  0  0  0  0  0  0  0  0  0  0  0
++         0  0  0  0  0  0  0  0  0  0  0  0  0  0  0  0  0
++         0  0  0  0  0  0  0  0  0  0  0  0  0  0  0  0  0
++         0  0  0  0  0  0  0  0  0  0  0  0  0  0  0  0  0
%c cc cc ccc ccc cccc cccc cccc cccc ccccc ccccc ccccc ccccc
%c cc cc ccc ccc cccc cccc cccc cccc ccccc ccccc ccccc ccccc
%f  0.0000000  0.000000000  0.00000000000  0.000000000000000
%f  0.0000000  0.000000000  0.00000000000  0.000000000000000
%i    0    0    0    0      0      0      0      0         0
%i    0    0    0    0      0      0      0      0         0
/*      NGA, ST. LOUIS,MO.                                  
/*   EPHEMERIS COMPUTED FROM  3 DAYS OF DATA                
/* CCCCCCCCCCCCCCCCCCCCCCCCCCCCCCCCCCCCCCCCCCCCCCCCCCCCCCCCC
/* CCCCCCCCCCCCCCCCCCCCCCCCCCCCCCCCCCCCCCCCCCCCCCCCCCCCCCCCC
*  2008  8 22  7  0   .00000000                                                 
P  2  22546.258527 -13359.874396   2697.082456    193.105313                    
V  2   4904.624979   1699.318854 -31332.930733      -.027669                    
P  3 -11548.417921  17212.546314  16136.041870    273.013645                    
V  3  -3525.634190 -21136.804436  20049.541220       .051138                    
P  4  24907.017857  -4913.999032  -8517.187125   -149.378542                    
V  4  -8376.090953   7083.593309 -28566.329753      -.105814                    
P  5  -8690.011830 -18841.181470 -16945.479288    423.973287                    
V  5  19290.093186   8448.758833 -19486.171464     -2.534294                    
P  6 -14232.793880  12677.307971  18693.038141    167.524555                    
V  6  -1014.556109 -23475.545705  15297.891815       .004558                    
P  7   9845.789856  11906.569116  21582.163520     10.888770                    
V  7 -24576.295286  12251.142281   4357.480186       .036323                    
P  8  20841.768786   3094.027503  16384.327121   -166.792563                    
V  8 -18685.836888   9007.164755  21485.310346      -.014438                    
P  9   6566.077826 -18061.015884 -18919.889649     11.172278                    
V  9  20649.491738  -9551.306766  16995.164530       .017690                    
P 10  14490.636286  -7502.364573  20881.475136     -4.070495                    
V 10  21364.823597  16122.709032  -8655.706404      -.003805                    
P 11  -2372.542165  19700.180322 -17672.691718     21.234019                    
V 11 -19645.864112  11373.551799  15800.216086      -.007302                    
P 12  -2719.956856 -18038.771210 -19257.930257   -353.756454                    
V 12  20980.396602  12869.174648 -14857.775461       .012426                    
P 13   6392.797733  21647.910462  13883.274872    268.494078                    
V 13  -3529.136973  17469.024629 -25390.927433       .013258                    
P 14 -14094.395396  -4257.492735 -22008.680435   -229.208009                    
V 14   3102.420581 -27938.222391   3292.087993       .046032                    
P 15   7271.831956 -24192.572579   8207.480246   -164.142886                    
V 15   2066.498955  10543.574344  29345.521111      -.064654                    
P 16 -18621.342719   2782.198116  18878.440529    110.959243                    
V 16 -18674.692984 -14730.047406 -16097.806396      -.019004                    
P 17  14827.068539   4145.844818 -21610.140624     38.922205                    
V 17  -2618.132017  27410.687973   3288.012317      -.000413                    
P 18 -19149.718875 -18162.327861   4625.251680   -142.321751                    
V 18   6190.438307    990.115315  30471.569383       .041872                    
P 19  -8431.219911  24115.234512   6950.203339     34.909731                    
V 19  -1633.051570  -9102.536820  30142.646791       .003209                    
P 20   5568.368092  19001.421126 -17833.265642    106.781190                    
V 20 -19784.614905 -10765.773306 -17728.667674      -.010438                    
P 21 -15644.698390  -8992.002858  19875.513568     53.544461                    
V 21  22064.807574 -11170.406611  11826.068845      -.013912                    
P 22 -23232.064598 -10118.369400  -7906.377661    211.276575                    
V 22  -6394.066116  -8603.182127  29139.199374      -.001695                    
P 23    484.494738  26146.943895   3669.895979    370.030852                    
V 23  -3038.036768   4544.777445 -31710.966094       .016050                    
P 24    332.297326 -16428.019979  21078.151231    119.035290                    
V 24  24538.386463  -9673.029886  -7717.089910       .030915                    
P 25   2768.176342  15769.798308  21574.313963   -240.213529                    
V 25 -22907.415881  13368.126180  -6773.452027      -.310808                    
P 26  10184.279158 -21021.979134  11618.452143    313.762752                    
V 26    114.884484  15809.245127  27866.869589       .060824                    
P 27  12944.285628   9801.185216  21719.589538    211.946312                    
V 27 -22430.878237  13065.468412   7596.063887       .029707                    
P 28  23241.939650  11395.857528  -6295.037222    -21.989203                    
V 28   5435.730200   6866.111628  30272.825967      -.002767                    
P 29  -5551.917867 -23557.098217  11090.780980    -39.371446                    
V 29   3705.576370 -13612.346640 -27307.248787       .007956                    
P 30 -16021.315888 -18729.200734 -10376.053852     92.505872                    
V 30  12132.163796   4451.942529 -27622.969053       .020890                    
P 31 -24781.600544   7887.690509  -5481.004360    -25.076294                    
V 31   5399.657642  -5329.592338 -30841.550397       .000265                    
P 32  -2445.836749  16203.733472 -20510.923000    314.225921                    
V 32 -21442.065422 -16378.227845  -9993.641325       .014206                    
EOF
